KUIPER-00279            
1 67795U 26030AH  26204.28947038  .00003374  00000+0  47106-3 0  9997
2 67795  51.9026 298.5182 0000912 205.0507 155.0411 14.79957390 25744
KUIPER-00131            
1 68573U 26072A   26203.54279800  .00003134  00000+0  43965-3 0  9994
2 68573  51.9012  39.3071 0000769 113.2226 246.8817 14.79957331 16351
KUIPER-00189            
1 68574U 26072B   26203.97908665 -.00003324  00000+0 -40756-3 0  9998
2 68574  51.9010  39.8634 0000934 107.8860 252.2204 14.79904963 16384
KUIPER-00192            
1 68575U 26072C   26203.54549321  .00002994  00000+0  42136-3 0  9996
2 68575  51.8997  36.7909 0000814 121.7753 238.3289 14.79956834 16395
KUIPER-00193            
1 68576U 26072D   26203.89397932  .00003301  00000+0  46188-3 0  9998
2 68576  51.9055  25.2713 0001405   6.7421 353.3560 14.79930738 16585
KUIPER-00194            
1 68577U 26072E   26204.25725222  .00003617  00000+0  50295-3 0  9991
2 68577  51.9028  31.1586 0000619 145.0299 215.0704 14.79950394 16535
KUIPER-00229            
1 68578U 26072F   26203.57655174  .00003131  00000+0  43931-3 0  9994
2 68578  51.9019  39.1543 0000835 133.6483 226.4549 14.79959451 16362
KUIPER-00230            
1 68579U 26072G   26203.85405779  .00043574  00000+0  11354-2 0  9998
2 68579  51.8783   4.0076 0001560 165.4341 194.6692 15.38428583 16878
KUIPER-00231            
1 68580U 26072H   26204.25002315 -.00015601  00000+0 -20452-2 0  9995
2 68580  51.8990   8.4923 0005338  19.8429 313.7562 14.79445541  5230
KUIPER-00234            
1 68581U 26072J   26204.22357586  .00003227  00000+0  45224-3 0  9990
2 68581  51.9000  31.2859 0000111 126.3300 233.7673 14.79914588 16522
KUIPER-00236            
1 68582U 26072K   26203.74753891  .00038065  00000+0  10000-2 0  9997
2 68582  51.8761   4.7922 0001730 177.4603 182.6393 15.38237629 16850
KUIPER-00244            
1 68583U 26072L   26203.93038179  .00003876  00000+0  53675-3 0  9992
2 68583  51.9006  22.6037 0001388 140.7396 219.3667 14.79962483 16625
KUIPER-00253            
1 68584U 26072M   26204.19783790  .00003448  00000+0  48079-3 0  9995
2 68584  51.9033  23.9276 0000647 110.3818 249.7214 14.79952457 16629
KUIPER-00254            
1 68585U 26072N   26203.89124866  .00003574  00000+0  49728-3 0  9997
2 68585  51.9039  27.7822 0001701 130.6762 229.4348 14.79955191 16542
KUIPER-00263            
1 68586U 26072P   26203.83999273  .00000217  00000+0  57435-4 0  9990
2 68586  51.9042  13.0844 0000396  89.4294 270.6714 14.79965870 16741
KUIPER-00269            
1 68587U 26072Q   26204.17480662  .00003370  00000+0  47035-3 0  9993
2 68587  51.9016  14.0198 0000418  79.1617 280.9393 14.79979850 16768
