{"fetched_at":"2026-07-23T17:55:06.836Z","source":"https://celestrak.org/NORAD/elements/gp.php?GROUP=kuiper&FORMAT=JSON","constellation":"kuiper","records":[{"OBJECT_NAME":"KUIPER-00279","OBJECT_ID":"2026-030AH","EPOCH":"2026-07-23T06:56:50.240832","CLASSIFICATION_TYPE":"U","MEAN_MOTION":14.7995739,"ECCENTRICITY":0.00009124,"INCLINATION":51.9026,"RA_OF_ASC_NODE":298.5182,"ARG_OF_PERICENTER":205.0507,"MEAN_ANOMALY":155.0411,"EPHEMERIS_TYPE":0,"NORAD_CAT_ID":67795,"ELEMENT_SET_NO":999,"REV_AT_EPOCH":2574,"BSTAR":0.00047105865,"MEAN_MOTION_DOT":0.00003374,"MEAN_MOTION_DDOT":0},{"OBJECT_NAME":"KUIPER-00131","OBJECT_ID":"2026-072A","EPOCH":"2026-07-22T13:01:37.747200","CLASSIFICATION_TYPE":"U","MEAN_MOTION":14.79957331,"ECCENTRICITY":0.00007693,"INCLINATION":51.9012,"RA_OF_ASC_NODE":39.3071,"ARG_OF_PERICENTER":113.2226,"MEAN_ANOMALY":246.8817,"EPHEMERIS_TYPE":0,"NORAD_CAT_ID":68573,"ELEMENT_SET_NO":999,"REV_AT_EPOCH":1635,"BSTAR":0.00043964517,"MEAN_MOTION_DOT":0.00003134,"MEAN_MOTION_DDOT":0},{"OBJECT_NAME":"KUIPER-00189","OBJECT_ID":"2026-072B","EPOCH":"2026-07-22T23:29:53.086560","CLASSIFICATION_TYPE":"U","MEAN_MOTION":14.79904963,"ECCENTRICITY":0.00009349,"INCLINATION":51.901,"RA_OF_ASC_NODE":39.8634,"ARG_OF_PERICENTER":107.886,"MEAN_ANOMALY":252.2204,"EPHEMERIS_TYPE":0,"NORAD_CAT_ID":68574,"ELEMENT_SET_NO":999,"REV_AT_EPOCH":1638,"BSTAR":-0.00040755589,"MEAN_MOTION_DOT":-0.00003324,"MEAN_MOTION_DDOT":0},{"OBJECT_NAME":"KUIPER-00192","OBJECT_ID":"2026-072C","EPOCH":"2026-07-22T13:05:30.613344","CLASSIFICATION_TYPE":"U","MEAN_MOTION":14.79956834,"ECCENTRICITY":0.00008144,"INCLINATION":51.8997,"RA_OF_ASC_NODE":36.7909,"ARG_OF_PERICENTER":121.7753,"MEAN_ANOMALY":238.3289,"EPHEMERIS_TYPE":0,"NORAD_CAT_ID":68575,"ELEMENT_SET_NO":999,"REV_AT_EPOCH":1639,"BSTAR":0.00042135646,"MEAN_MOTION_DOT":0.00002994,"MEAN_MOTION_DDOT":0},{"OBJECT_NAME":"KUIPER-00193","OBJECT_ID":"2026-072D","EPOCH":"2026-07-22T21:27:19.813248","CLASSIFICATION_TYPE":"U","MEAN_MOTION":14.79930738,"ECCENTRICITY":0.00014052,"INCLINATION":51.9055,"RA_OF_ASC_NODE":25.2713,"ARG_OF_PERICENTER":6.7421,"MEAN_ANOMALY":353.356,"EPHEMERIS_TYPE":0,"NORAD_CAT_ID":68576,"ELEMENT_SET_NO":999,"REV_AT_EPOCH":1658,"BSTAR":0.00046188363,"MEAN_MOTION_DOT":0.00003301,"MEAN_MOTION_DDOT":0},{"OBJECT_NAME":"KUIPER-00194","OBJECT_ID":"2026-072E","EPOCH":"2026-07-23T06:10:26.591808","CLASSIFICATION_TYPE":"U","MEAN_MOTION":14.79950394,"ECCENTRICITY":0.00006192,"INCLINATION":51.9028,"RA_OF_ASC_NODE":31.1586,"ARG_OF_PERICENTER":145.0299,"MEAN_ANOMALY":215.0704,"EPHEMERIS_TYPE":0,"NORAD_CAT_ID":68577,"ELEMENT_SET_NO":999,"REV_AT_EPOCH":1653,"BSTAR":0.00050295177,"MEAN_MOTION_DOT":0.00003617,"MEAN_MOTION_DDOT":0},{"OBJECT_NAME":"KUIPER-00229","OBJECT_ID":"2026-072F","EPOCH":"2026-07-22T13:50:14.070336","CLASSIFICATION_TYPE":"U","MEAN_MOTION":14.79959451,"ECCENTRICITY":0.00008356,"INCLINATION":51.9019,"RA_OF_ASC_NODE":39.1543,"ARG_OF_PERICENTER":133.6483,"MEAN_ANOMALY":226.4549,"EPHEMERIS_TYPE":0,"NORAD_CAT_ID":68578,"ELEMENT_SET_NO":999,"REV_AT_EPOCH":1636,"BSTAR":0.00043931022,"MEAN_MOTION_DOT":0.00003131,"MEAN_MOTION_DDOT":0},{"OBJECT_NAME":"KUIPER-00230","OBJECT_ID":"2026-072G","EPOCH":"2026-07-22T20:29:50.593056","CLASSIFICATION_TYPE":"U","MEAN_MOTION":15.38428583,"ECCENTRICITY":0.00015608,"INCLINATION":51.8783,"RA_OF_ASC_NODE":4.0076,"ARG_OF_PERICENTER":165.4341,"MEAN_ANOMALY":194.6692,"EPHEMERIS_TYPE":0,"NORAD_CAT_ID":68579,"ELEMENT_SET_NO":999,"REV_AT_EPOCH":1687,"BSTAR":0.0011353706,"MEAN_MOTION_DOT":0.00043574,"MEAN_MOTION_DDOT":0},{"OBJECT_NAME":"KUIPER-00231","OBJECT_ID":"2026-072H","EPOCH":"2026-07-23T06:00:02.000160","CLASSIFICATION_TYPE":"U","MEAN_MOTION":14.79445541,"ECCENTRICITY":0.00053382,"INCLINATION":51.899,"RA_OF_ASC_NODE":8.4923,"ARG_OF_PERICENTER":19.8429,"MEAN_ANOMALY":313.7562,"EPHEMERIS_TYPE":0,"NORAD_CAT_ID":68580,"ELEMENT_SET_NO":999,"REV_AT_EPOCH":523,"BSTAR":-0.0020452347,"MEAN_MOTION_DOT":-0.00015601,"MEAN_MOTION_DDOT":0},{"OBJECT_NAME":"KUIPER-00234","OBJECT_ID":"2026-072J","EPOCH":"2026-07-23T05:21:56.954304","CLASSIFICATION_TYPE":"U","MEAN_MOTION":14.79914588,"ECCENTRICITY":0.00001112,"INCLINATION":51.9,"RA_OF_ASC_NODE":31.2859,"ARG_OF_PERICENTER":126.33,"MEAN_ANOMALY":233.7673,"EPHEMERIS_TYPE":0,"NORAD_CAT_ID":68581,"ELEMENT_SET_NO":999,"REV_AT_EPOCH":1652,"BSTAR":0.00045224114,"MEAN_MOTION_DOT":0.00003227,"MEAN_MOTION_DDOT":0},{"OBJECT_NAME":"KUIPER-00236","OBJECT_ID":"2026-072K","EPOCH":"2026-07-22T17:56:27.361824","CLASSIFICATION_TYPE":"U","MEAN_MOTION":15.38237629,"ECCENTRICITY":0.00017309,"INCLINATION":51.8761,"RA_OF_ASC_NODE":4.7922,"ARG_OF_PERICENTER":177.4603,"MEAN_ANOMALY":182.6393,"EPHEMERIS_TYPE":0,"NORAD_CAT_ID":68582,"ELEMENT_SET_NO":999,"REV_AT_EPOCH":1685,"BSTAR":0.0010000356,"MEAN_MOTION_DOT":0.00038065,"MEAN_MOTION_DDOT":0},{"OBJECT_NAME":"KUIPER-00244","OBJECT_ID":"2026-072L","EPOCH":"2026-07-22T22:19:44.986656","CLASSIFICATION_TYPE":"U","MEAN_MOTION":14.79962483,"ECCENTRICITY":0.0001388,"INCLINATION":51.9006,"RA_OF_ASC_NODE":22.6037,"ARG_OF_PERICENTER":140.7396,"MEAN_ANOMALY":219.3667,"EPHEMERIS_TYPE":0,"NORAD_CAT_ID":68583,"ELEMENT_SET_NO":999,"REV_AT_EPOCH":1662,"BSTAR":0.00053675425,"MEAN_MOTION_DOT":0.00003876,"MEAN_MOTION_DDOT":0},{"OBJECT_NAME":"KUIPER-00253","OBJECT_ID":"2026-072M","EPOCH":"2026-07-23T04:44:53.194560","CLASSIFICATION_TYPE":"U","MEAN_MOTION":14.79952457,"ECCENTRICITY":0.00006474,"INCLINATION":51.9033,"RA_OF_ASC_NODE":23.9276,"ARG_OF_PERICENTER":110.3818,"MEAN_ANOMALY":249.7214,"EPHEMERIS_TYPE":0,"NORAD_CAT_ID":68584,"ELEMENT_SET_NO":999,"REV_AT_EPOCH":1662,"BSTAR":0.00048078709,"MEAN_MOTION_DOT":0.00003448,"MEAN_MOTION_DDOT":0},{"OBJECT_NAME":"KUIPER-00254","OBJECT_ID":"2026-072N","EPOCH":"2026-07-22T21:23:23.884224","CLASSIFICATION_TYPE":"U","MEAN_MOTION":14.79955191,"ECCENTRICITY":0.00017016,"INCLINATION":51.9039,"RA_OF_ASC_NODE":27.7822,"ARG_OF_PERICENTER":130.6762,"MEAN_ANOMALY":229.4348,"EPHEMERIS_TYPE":0,"NORAD_CAT_ID":68585,"ELEMENT_SET_NO":999,"REV_AT_EPOCH":1654,"BSTAR":0.00049727719,"MEAN_MOTION_DOT":0.00003574,"MEAN_MOTION_DDOT":0},{"OBJECT_NAME":"KUIPER-00263","OBJECT_ID":"2026-072P","EPOCH":"2026-07-22T20:09:35.371872","CLASSIFICATION_TYPE":"U","MEAN_MOTION":14.7996587,"ECCENTRICITY":0.00003969,"INCLINATION":51.9042,"RA_OF_ASC_NODE":13.0844,"ARG_OF_PERICENTER":89.4294,"MEAN_ANOMALY":270.6714,"EPHEMERIS_TYPE":0,"NORAD_CAT_ID":68586,"ELEMENT_SET_NO":999,"REV_AT_EPOCH":1674,"BSTAR":0.000057435242,"MEAN_MOTION_DOT":0.00000217,"MEAN_MOTION_DDOT":0},{"OBJECT_NAME":"KUIPER-00269","OBJECT_ID":"2026-072Q","EPOCH":"2026-07-23T04:11:43.291968","CLASSIFICATION_TYPE":"U","MEAN_MOTION":14.7997985,"ECCENTRICITY":0.0000418,"INCLINATION":51.9016,"RA_OF_ASC_NODE":14.0198,"ARG_OF_PERICENTER":79.1617,"MEAN_ANOMALY":280.9393,"EPHEMERIS_TYPE":0,"NORAD_CAT_ID":68587,"ELEMENT_SET_NO":999,"REV_AT_EPOCH":1676,"BSTAR":0.00047035458,"MEAN_MOTION_DOT":0.0000337,"MEAN_MOTION_DDOT":0}]}
